{
  "type": "FeatureCollection",
  "features": [
    {
      "type": "Feature",
      "properties": {
        "norad_id": 37694,
        "name": "FENGYUN 1C DEB",
        "group": "fengyun-1c-debris",
        "lat": -59.201539363713145,
        "lon": -146.0566323625875,
        "alt_km": 907.6597039604576,
        "timestamp": "2025-12-05T18:53:13.571164+00:00",
        "meta_object_name": "FENGYUN 1C DEB",
        "meta_object_id": "1999-025ELK",
        "meta_epoch": "2025-11-23T11:03:37.255104",
        "meta_mean_motion": 14.16434986,
        "meta_eccentricity": 0.01492409,
        "meta_inclination": 98.199,
        "meta_ra_of_asc_node": 36.5782,
        "meta_arg_of_pericenter": 149.1235,
        "meta_mean_anomaly": 270.2915,
        "meta_ephemeris_type": 0,
        "meta_classification_type": "U",
        "meta_norad_cat_id": 37694,
        "meta_element_set_no": 999,
        "meta_rev_at_epoch": 51431,
        "meta_bstar": 0.0018793287,
        "meta_mean_motion_dot": 4.13e-05,
        "meta_mean_motion_ddot": 0,
        "tle_line1": "1 37694U 99025ELK 25327.46084786  .00004130  00000+0  18793-2 0  9993",
        "tle_line2": "2 37694  98.1990  36.5782 0149240 149.1235 270.2915 14.16434986514319"
      },
      "geometry": {
        "type": "Point",
        "coordinates": [
          -146.0566323625875,
          -59.201539363713145
        ]
      }
    },
    {
      "type": "Feature",
      "properties": {
        "norad_id": 37695,
        "name": "FENGYUN 1C DEB",
        "group": "fengyun-1c-debris",
        "lat": -1.479579956238833,
        "lon": 24.375066841178537,
        "alt_km": 940.3703546451361,
        "timestamp": "2025-12-05T18:53:13.571175+00:00",
        "meta_object_name": "FENGYUN 1C DEB",
        "meta_object_id": "1999-025ELL",
        "meta_epoch": "2025-11-12T09:45:41.390784",
        "meta_mean_motion": 13.64847867,
        "meta_eccentricity": 0.04648499,
        "meta_inclination": 98.2183,
        "meta_ra_of_asc_node": 4.2705,
        "meta_arg_of_pericenter": 342.0154,
        "meta_mean_anomaly": 28.6211,
        "meta_ephemeris_type": 0,
        "meta_classification_type": "U",
        "meta_norad_cat_id": 37695,
        "meta_element_set_no": 999,
        "meta_rev_at_epoch": 88838,
        "meta_bstar": 0.0022999386,
        "meta_mean_motion_dot": 3.857e-05,
        "meta_mean_motion_ddot": 0,
        "tle_line1": "1 37695U 99025ELL 25316.40672906  .00003857  00000+0  22999-2 0  9991",
        "tle_line2": "2 37695  98.2183   4.2705 0464849 342.0154  28.6211 13.64847867888384"
      },
      "geometry": {
        "type": "Point",
        "coordinates": [
          24.375066841178537,
          -1.479579956238833
        ]
      }
    },
    {
      "type": "Feature",
      "properties": {
        "norad_id": 37704,
        "name": "FENGYUN 1C DEB",
        "group": "fengyun-1c-debris",
        "lat": -1.6063658348099585,
        "lon": -6.420285861276484,
        "alt_km": 830.1045115012366,
        "timestamp": "2025-12-05T18:53:13.571185+00:00",
        "meta_object_name": "FENGYUN 1C DEB",
        "meta_object_id": "1999-025ELV",
        "meta_epoch": "2025-11-13T18:53:12.256224",
        "meta_mean_motion": 13.70394507,
        "meta_eccentricity": 0.02407203,
        "meta_inclination": 98.3154,
        "meta_ra_of_asc_node": 154.7598,
        "meta_arg_of_pericenter": 256.7939,
        "meta_mean_anomaly": 163.8462,
        "meta_ephemeris_type": 0,
        "meta_classification_type": "U",
        "meta_norad_cat_id": 37704,
        "meta_element_set_no": 999,
        "meta_rev_at_epoch": 61968,
        "meta_bstar": 0.0028357246,
        "meta_mean_motion_dot": 3.039e-05,
        "meta_mean_motion_ddot": 0,
        "tle_line1": "1 37704U 99025ELV 25317.78694741  .00003039  00000+0  28357-2 0  9991",
        "tle_line2": "2 37704  98.3154 154.7598 0240720 256.7939 163.8462 13.70394507619687"
      },
      "geometry": {
        "type": "Point",
        "coordinates": [
          -6.420285861276484,
          -1.6063658348099585
        ]
      }
    },
    {
      "type": "Feature",
      "properties": {
        "norad_id": 37707,
        "name": "FENGYUN 1C DEB",
        "group": "fengyun-1c-debris",
        "lat": -65.75206489283197,
        "lon": 5.830013243229445,
        "alt_km": 752.1254022342482,
        "timestamp": "2025-12-05T18:53:13.571196+00:00",
        "meta_object_name": "FENGYUN 1C DEB",
        "meta_object_id": "1999-025ELY",
        "meta_epoch": "2025-11-27T05:20:57.252768",
        "meta_mean_motion": 14.56289671,
        "meta_eccentricity": 0.01442237,
        "meta_inclination": 100.2205,
        "meta_ra_of_asc_node": 331.7391,
        "meta_arg_of_pericenter": 70.8606,
        "meta_mean_anomaly": 348.4248,
        "meta_ephemeris_type": 0,
        "meta_classification_type": "U",
        "meta_norad_cat_id": 37707,
        "meta_element_set_no": 999,
        "meta_rev_at_epoch": 85340,
        "meta_bstar": 0.0006683793,
        "meta_mean_motion_dot": 3.335e-05,
        "meta_mean_motion_ddot": 0,
        "tle_line1": "1 37707U 99025ELY 25331.22288487  .00003335  00000+0  66838-3 0  9991",
        "tle_line2": "2 37707 100.2205 331.7391 0144223  70.8606 348.4248 14.56289671853408"
      },
      "geometry": {
        "type": "Point",
        "coordinates": [
          5.830013243229445,
          -65.75206489283197
        ]
      }
    },
    {
      "type": "Feature",
      "properties": {
        "norad_id": 37712,
        "name": "FENGYUN 1C DEB",
        "group": "fengyun-1c-debris",
        "lat": -74.67187693391384,
        "lon": 153.1321244702314,
        "alt_km": 778.8509548575867,
        "timestamp": "2025-12-05T18:53:13.571205+00:00",
        "meta_object_name": "FENGYUN 1C DEB",
        "meta_object_id": "1999-025EMD",
        "meta_epoch": "2025-11-27T15:41:44.019744",
        "meta_mean_motion": 14.36373933,
        "meta_eccentricity": 0.00799447,
        "meta_inclination": 98.8184,
        "meta_ra_of_asc_node": 110.3124,
        "meta_arg_of_pericenter": 38.1802,
        "meta_mean_anomaly": 333.7876,
        "meta_ephemeris_type": 0,
        "meta_classification_type": "U",
        "meta_norad_cat_id": 37712,
        "meta_element_set_no": 999,
        "meta_rev_at_epoch": 63744,
        "meta_bstar": 0.00047161724,
        "meta_mean_motion_dot": 1.385e-05,
        "meta_mean_motion_ddot": 0,
        "tle_line1": "1 37712U 99025EMD 25331.65398171  .00001385  00000+0  47162-3 0  9998",
        "tle_line2": "2 37712  98.8184 110.3124 0079944  38.1802 333.7876 14.36373933637440"
      },
      "geometry": {
        "type": "Point",
        "coordinates": [
          153.1321244702314,
          -74.67187693391384
        ]
      }
    },
    {
      "type": "Feature",
      "properties": {
        "norad_id": 37714,
        "name": "FENGYUN 1C DEB",
        "group": "fengyun-1c-debris",
        "lat": -71.45547180409355,
        "lon": 119.13309816023136,
        "alt_km": 827.5283046947743,
        "timestamp": "2025-12-05T18:53:13.571215+00:00",
        "meta_object_name": "FENGYUN 1C DEB",
        "meta_object_id": "1999-025EMF",
        "meta_epoch": "2025-12-01T06:14:12.602976",
        "meta_mean_motion": 14.32022386,
        "meta_eccentricity": 0.0049613,
        "meta_inclination": 98.8928,
        "meta_ra_of_asc_node": 86.6726,
        "meta_arg_of_pericenter": 118.0452,
        "meta_mean_anomaly": 242.5761,
        "meta_ephemeris_type": 0,
        "meta_classification_type": "U",
        "meta_norad_cat_id": 37714,
        "meta_element_set_no": 999,
        "meta_rev_at_epoch": 57345,
        "meta_bstar": 0.0027481,
        "meta_mean_motion_dot": 7.44e-05,
        "meta_mean_motion_ddot": 0,
        "tle_line1": "1 37714U 99025EMF 25335.25986809  .00007440  00000+0  27481-2 0  9990",
        "tle_line2": "2 37714  98.8928  86.6726 0049613 118.0452 242.5761 14.32022386573459"
      },
      "geometry": {
        "type": "Point",
        "coordinates": [
          119.13309816023136,
          -71.45547180409355
        ]
      }
    },
    {
      "type": "Feature",
      "properties": {
        "norad_id": 37715,
        "name": "FENGYUN 1C DEB",
        "group": "fengyun-1c-debris",
        "lat": -68.6613743533006,
        "lon": 11.556841892010219,
        "alt_km": 994.4895494160182,
        "timestamp": "2025-12-05T18:53:13.571225+00:00",
        "meta_object_name": "FENGYUN 1C DEB",
        "meta_object_id": "1999-025EMG",
        "meta_epoch": "2025-12-05T07:15:54.457632",
        "meta_mean_motion": 13.95395456,
        "meta_eccentricity": 0.01145095,
        "meta_inclination": 98.9562,
        "meta_ra_of_asc_node": 347.2784,
        "meta_arg_of_pericenter": 132.4059,
        "meta_mean_anomaly": 245.336,
        "meta_ephemeris_type": 0,
        "meta_classification_type": "U",
        "meta_norad_cat_id": 37715,
        "meta_element_set_no": 999,
        "meta_rev_at_epoch": 57700,
        "meta_bstar": 0.0008221947,
        "meta_mean_motion_dot": 1.135e-05,
        "meta_mean_motion_ddot": 0,
        "tle_line1": "1 37715U 99025EMG 25339.30271363  .00001135  00000+0  82219-3 0  9999",
        "tle_line2": "2 37715  98.9562 347.2784 0114509 132.4059 245.3360 13.95395456577005"
      },
      "geometry": {
        "type": "Point",
        "coordinates": [
          11.556841892010219,
          -68.6613743533006
        ]
      }
    }
  ]
}